{
    "links": {
        "self": "http://www.neowsapp.com/rest/v1/neo/3548665?api_key=iIulBulltgU6a56xZRHN4H3l9WmuAYTsLGpBGhQ2"
    },
    "id": "3548665",
    "neo_reference_id": "3548665",
    "name": "(2010 TV54)",
    "designation": "2010 TV54",
    "nasa_jpl_url": "http://ssd.jpl.nasa.gov/sbdb.cgi?sstr=3548665",
    "absolute_magnitude_h": 25.7,
    "estimated_diameter": {
        "kilometers": {
            "estimated_diameter_min": 0.0192555078,
            "estimated_diameter_max": 0.0430566244
        },
        "meters": {
            "estimated_diameter_min": 19.2555078188,
            "estimated_diameter_max": 43.0566244241
        },
        "miles": {
            "estimated_diameter_min": 0.0119648141,
            "estimated_diameter_max": 0.0267541378
        },
        "feet": {
            "estimated_diameter_min": 63.1742402722,
            "estimated_diameter_max": 141.2618956756
        }
    },
    "is_potentially_hazardous_asteroid": false,
    "close_approach_data": [
        {
            "close_approach_date": "2010-10-18",
            "close_approach_date_full": "2010-Oct-18 16:59",
            "epoch_date_close_approach": 1287421140000,
            "relative_velocity": {
                "kilometers_per_second": "16.3066116063",
                "kilometers_per_hour": "58703.8017827977",
                "miles_per_hour": "36476.2595022056"
            },
            "miss_distance": {
                "astronomical": "0.0131619438",
                "lunar": "5.1199961382",
                "kilometers": "1968998.757539706",
                "miles": "1223479.0944557028"
            },
            "orbiting_body": "Earth"
        },
        {
            "close_approach_date": "2010-11-18",
            "close_approach_date_full": "2010-Nov-18 23:38",
            "epoch_date_close_approach": 1290123480000,
            "relative_velocity": {
                "kilometers_per_second": "11.9478326012",
                "kilometers_per_hour": "43012.1973643492",
                "miles_per_hour": "26726.1067456424"
            },
            "miss_distance": {
                "astronomical": "0.0761202805",
                "lunar": "29.6107891145",
                "kilometers": "11387431.826602535",
                "miles": "7075822.026823583"
            },
            "orbiting_body": "Venus"
        }
    ],
    "orbital_data": {
        "orbit_id": "10",
        "orbit_determination_date": "2017-04-06 08:56:19",
        "first_observation_date": "2010-10-11",
        "last_observation_date": "2010-10-17",
        "data_arc_in_days": 6,
        "observations_used": 32,
        "orbit_uncertainty": "8",
        "minimum_orbit_intersection": ".00669799",
        "jupiter_tisserand_invariant": "3.665",
        "epoch_osculation": "2455482.5",
        "eccentricity": ".614347066481606",
        "semi_major_axis": "1.918576254401672",
        "inclination": "6.202819752292971",
        "ascending_node_longitude": "202.4563318226026",
        "orbital_period": "970.6597570921499",
        "perihelion_distance": ".7399045606887376",
        "perihelion_argument": "254.7353127792103",
        "aphelion_distance": "3.097247948114607",
        "perihelion_time": "2455533.278662800740",
        "mean_anomaly": "341.1671201214423",
        "mean_motion": ".3708817609565566",
        "equinox": "J2000",
        "orbit_class": {
            "orbit_class_type": "APO",
            "orbit_class_description": "Near-Earth asteroid orbits which cross the Earth’s orbit similar to that of 1862 Apollo",
            "orbit_class_range": "a (semi-major axis) > 1.0 AU; q (perihelion) < 1.017 AU"
        }
    },
    "is_sentry_object": false
}